{"type":"FeatureCollection","features":[{"type":"Feature","properties":{"name":"Kenya"},"geometry":{"type":"MultiPolygon","coordinates":[[[[41.45834394600007,-1.7748348939999232],[41.41765384200005,-1.8472632789999466],[41.28272545700008,-1.9685197899999594],[41.26734459700003,-1.9496395809999285],[41.231455925000034,-1.9554989559999285],[41.21900475400008,-1.9224585919999413],[41.18580162900008,-1.9901669249999259],[41.10914147200003,-1.977634372999944],[41.01295006600009,-2.0424130189999232],[40.979502800000034,-2.004978122999944],[41.00611412900008,-1.9017880189999232],[40.970713738000086,-1.9289690079999104],[40.96664472700007,-2.04656340899993],[40.945323113000086,-2.0731747379999206],[40.926768425000034,-2.0592587219999245],[40.908213738000086,-1.9977352839999298],[40.86101321700005,-1.9634742169999413],[40.84913170700008,-1.977634372999944],[40.85596764400009,-2.0184872379999206],[40.87224368600005,-2.01140715899993],[40.89380944100009,-2.0260555969999245],[40.883148634000065,-2.0601539039999466],[40.904307488000086,-2.080336195999962],[40.91195722700007,-2.1919898419999413],[40.924815300000034,-2.2172177059999285],[40.95687910200007,-2.218926690999922],[40.979258660000085,-2.242120049999926],[40.94483483200008,-2.309340101999908],[40.922618035000085,-2.3137346329999104],[40.91944420700008,-2.30242278399993],[40.952159050000034,-2.2860653629999206],[40.92107181100005,-2.270603122999944],[40.89372806100005,-2.22820403399993],[40.86304772200003,-2.2313778629999206],[40.79468834700003,-2.2904598939999232],[40.77393639400009,-2.279229424999926],[40.795583530000044,-2.3099911439999232],[40.79346764400009,-2.341973565999922],[40.82862389400009,-2.3747697899999594],[40.81690514400009,-2.3978817689999232],[40.71176191500007,-2.4665666649999594],[40.65056399800005,-2.539320570999962],[40.615896030000044,-2.5525041649999594],[40.490896030000044,-2.528497002999927],[40.38982181100005,-2.5603166649999594],[40.23210696700005,-2.669040622999944],[40.17497806100005,-2.7626278629999206],[40.18864993600005,-2.813571872999944],[40.16260826900009,-2.9342587219999245],[40.18376712300005,-2.950290622999944],[40.19068444100009,-2.9880510399999594],[40.23210696700005,-2.970635674999926],[40.23292076900009,-2.9818661439999232],[40.16382897200003,-3.0669898419999413],[40.15316816500007,-3.1351864559999285],[40.119151238000086,-3.183526299999926],[40.12289472700007,-3.2673479149999594],[39.98910566500007,-3.373223565999922],[39.971446160000085,-3.376071872999944],[39.99195397200003,-3.3070614559999285],[39.96607506600009,-3.3212216129999206],[39.965179884000065,-3.399183851999908],[39.865977410000085,-3.6164690079999104],[39.78638756600009,-3.58757903399993],[39.78093509200005,-3.566582940999922],[39.77588951900009,-3.6001929669999413],[39.80811608200008,-3.6088192689999232],[39.80014082100007,-3.634698174999926],[39.860118035000085,-3.6332333309999285],[39.86703535200007,-3.6949195289999466],[39.78638756600009,-3.917168877999927],[39.73210696700005,-3.946384372999944],[39.711924675000034,-3.93132903399993],[39.71208743600005,-3.8973934879999206],[39.68376712300005,-3.917168877999927],[39.71208743600005,-3.965020440999922],[39.74529056100005,-3.968682549999926],[39.70834394600007,-4.0375302059999285],[39.68116295700008,-4.047946872999944],[39.65984134200005,-4.007582289999959],[39.660492384000065,-3.9707984349999492],[39.64307701900009,-3.985528252999927],[39.60572350400008,-3.9696591129999206],[39.594737175000034,-3.978692315999922],[39.60466556100005,-3.988213799999926],[39.64307701900009,-3.999200127999927],[39.63559004000007,-4.017022393999923],[39.560557488000086,-4.039808851999908],[39.567393425000034,-4.081149997999944],[39.58187910200007,-4.061618747999944],[39.61508222700007,-4.059340101999908],[39.66968834700003,-4.087985934999949],[39.58383222700007,-4.279392184999949],[39.540049675000034,-4.430433851999908],[39.522471550000034,-4.418145440999922],[39.50603274800005,-4.438083591999941],[39.45069420700008,-4.581963799999926],[39.44385826900009,-4.5199520809999285],[39.40967858200008,-4.574476820999905],[39.391368035000085,-4.571058851999908],[39.406260613000086,-4.615166924999926],[39.39616946700005,-4.629001559999949],[39.32439212300005,-4.624607028999947],[39.30046634200005,-4.5949846329999104],[39.293711785000085,-4.615492445999905],[39.264333530000044,-4.606622002999927],[39.19060306100005,-4.677504164999931],[37.77095503800007,-3.6554346719999273],[37.70832320200009,-3.52717376699988],[37.5990792230001,-3.5134278359999342],[37.60817427600006,-3.4636117559999064],[37.57944217900007,-3.4463518269999156],[37.58522994000003,-3.412968851999949],[37.62719120300011,-3.370284117999944],[37.66987593600004,-3.356124775999902],[37.67194299300007,-3.3242920939999436],[37.70005497200009,-3.3143702189999544],[37.66016076700009,-3.0705608119999113],[37.64486454200005,-3.045962828999933],[34.05252567500008,-1.040400491999904],[34.01542199700009,-1.0375066119999161],[34.0000224210001,-1.0025733439999271],[33.90421431500005,-1.0025733439999271],[33.894809204000126,-0.6627491249998911],[33.95351363100008,-0.15435638399995355],[33.89356896900006,0.10981353800011107],[34.08518518000005,0.3470083620000679],[34.075676717000135,0.42224924700011],[34.10440881300008,0.4622468060000813],[34.149574016000145,0.6036335240000881],[34.252100057000064,0.6549998980001419],[34.276181275000056,0.6808381140000677],[34.298402140000064,0.7592829380000836],[34.38800907400014,0.8158169550000451],[34.45715214100011,0.9576170860000701],[34.48702111800009,1.0824673470000903],[34.507484984944085,1.1025178019550026],[34.561228475000064,1.0933710740000606],[34.58045210800009,1.15254058900004],[34.62892460100005,1.1635993450001365],[34.683804973000065,1.2090746060000868],[34.797906535000095,1.231915588000092],[34.81051558500013,1.272533264000046],[34.77899296100014,1.3885468550000581],[34.83842085800012,1.4371743780000656],[34.859504842000035,1.5179188030000148],[34.88255253000011,1.5522319540001206],[34.93371219900007,1.575693054000098],[34.97267622900006,1.6542412310000572],[34.9797042240001,1.8703003950000578],[35.006472615000064,1.916860860000014],[34.96203088300007,1.977813212000072],[34.967508586000065,2.1019141640000782],[34.86560266100008,2.347506409000104],[34.86787642400009,2.411481832000092],[34.90611698400011,2.4369066370001065],[34.923583619000055,2.4773176070000886],[34.88710005700011,2.522379456000124],[34.8756278890001,2.5912124640001224],[34.86560266100008,2.6048550420000396],[34.84183150300004,2.5877501420000897],[34.81868046100004,2.597982076000065],[34.77651249200005,2.6856253060000768],[34.730107056000065,2.852850240000109],[34.685045207000144,2.8809622200000575],[34.640500122000105,2.8601366170000944],[34.58468957500014,2.9287112430000377],[34.53383996600013,3.118467102000082],[34.44485315000014,3.159136455000038],[34.43400109900011,3.182029114000059],[34.424079223000035,3.3048123170001134],[34.383978312000124,3.3883472700000254],[34.398551066000095,3.433641662000113],[34.38129113800011,3.4768689980000715],[34.43451786300005,3.526219991000076],[34.439685506000046,3.6677359010001283],[34.337056112000084,3.7345793660000908],[34.29044396900008,3.703160095000058],[34.27886844900007,3.709723002000132],[34.24093794700008,3.783620300000024],[34.152467895000086,3.775636292000044],[34.179029582000055,3.7961001590001047],[34.14895389800006,3.822687683000126],[34.19670292200004,3.847389018000044],[34.20497115100011,3.8745449830001206],[34.18285363700005,3.886094666000062],[34.10802616400014,3.8689380910000892],[34.08477176900004,3.87733551000008],[34.10957645600007,3.943352152000017],[34.06110396300011,4.007766825000118],[34.06926883900013,4.088020325000031],[34.04095015500013,4.12042144800003],[34.02854781100007,4.188014221000088],[33.97707808500007,4.219691875000095],[34.381187785000066,4.620158386000099],[34.66627738114357,4.764979636491859],[35.24572572082997,4.981719855153159],[35.26341879990434,4.94854533188861],[35.41159833715233,5.030375822607695],[35.43371468599531,5.00383620399613],[35.396116892962254,4.926428983045639],[35.495640462755716,4.926428983045639],[35.57083604882183,4.904312634202668],[35.52218008136725,4.780461080681945],[35.61064126820912,4.620013573553891],[35.700364878660764,4.589110530793306],[35.71151833893896,4.661608022601527],[35.73940198963447,4.681126578088339],[35.77843910060807,4.678338213018733],[35.781221547358086,4.619922014081439],[35.92083540900012,4.619331563000088],[35.94047245300004,4.508046367000048],[36.04134484800005,4.443683370000059],[36.61950077300014,4.443373312000077],[36.6513334550001,4.430583394000095],[36.844086548000064,4.43223704100005],[36.90372115100007,4.4157780970000715],[37.01565230400007,4.370587057000094],[37.048415161000094,4.331958924000105],[37.07590702300013,4.3310804240000635],[37.09482059700008,4.284881694000106],[37.97673059100009,3.7264403280000806],[38.036158488000126,3.648925680000019],[38.11408654700011,3.6106076050000127],[38.17692509000011,3.6209170540001026],[38.4459525960001,3.6016675820000756],[38.49690555800004,3.6239401250000327],[38.50899784300009,3.6508118690000373],[38.547135051000055,3.6095224000001025],[38.660306437000145,3.5944587200001195],[38.66102990700011,3.621950582000082],[38.72200809800012,3.560403951000069],[38.895227498000054,3.513585103000139],[39.0679301350001,3.5265817260000745],[39.219445434000136,3.468704122000048],[39.315873657000054,3.4949040730000718],[39.3113261310001,3.4660944620000436],[39.43617639200005,3.4623737590000303],[39.46697554500008,3.4520126350001163],[39.50438928200009,3.4033334350000928],[39.536325317000035,3.405012920000047],[39.574979289000055,3.497901306000088],[39.76421838400006,3.685745138000115],[39.848450969000055,3.867284444000049],[40.16243697100009,4.019394023000075],[40.16719120300007,4.035465393000052],[40.36573205600013,4.094867452000088],[40.38268192600009,4.121377462000083],[40.70069869000014,4.2435147100000705],[40.76374393700013,4.284933370000118],[40.84601281700009,4.214989319000026],[40.89768925000004,4.145923767000056],[41.005899699000054,4.086676737000062],[41.07008182800007,3.996914774000075],[41.16299605300014,3.942680359000036],[41.42954309100014,3.9488815310000263],[41.586329386000045,3.9841506960001],[41.642966756000135,3.969448751000101],[41.69981083200008,3.996914774000075],[41.83592655400008,3.949449971000078],[41.885019165000074,3.9772260540001128],[41.34272668500006,3.201149394000055],[40.96538537600014,2.814144593000009],[40.97975142400014,-0.8707984409999199],[41.534963012000105,-1.5947852579999306],[41.535085483000046,-1.6963029929999607],[41.45834394600007,-1.7748348939999232]]],[[[41.12273196700005,-2.0477841129999206],[41.162771030000044,-2.090915622999944],[41.155284050000034,-2.112074476999908],[41.13689212300005,-2.115492445999962],[41.123383009000065,-2.093682549999926],[41.10482832100007,-2.1340471329999104],[41.08179772200003,-2.1215145809999285],[40.99561608200008,-2.1438127579999104],[40.98617597700007,-2.165948174999926],[41.00611412900008,-2.1973609349999492],[40.98585045700008,-2.191338799999926],[40.979502800000034,-2.1693661439999232],[40.95728600400008,-2.174004815999922],[40.98292076900009,-2.09734465899993],[41.04517662900008,-2.0697567689999232],[41.06568444100009,-2.036309502999927],[41.12273196700005,-2.0477841129999206]]]]}}]}
