{"type": "FeatureCollection", "features": [{"type": "Feature", "properties": {"TILE": "t30uxv"}, "geometry": {"type": "Polygon", "coordinates": [[[-0.24482988225582472, 48.63657278525832], [-1.390931352542473, 48.65829582304078], [-1.4774605474461113, 48.67098786482433], [-1.5282588696818646, 48.71771013477029], [-1.5617382892261649, 48.764194494096124], [-1.5765459880916228, 48.85650026896179], [-1.605348523413424, 49.07563587983377], [-1.6145262121103208, 49.37512156426057], [-1.6142025209178656, 49.38663181930592], [-1.6138786226653865, 49.39814204974318], [-1.6135545171817933, 49.40965225557244], [-1.6129056838359073, 49.43267259340751], [-1.61258095563045, 49.444182725413576], [-1.6112799619124563, 49.49022300736464], [-1.6109541923970714, 49.50173301633481], [-1.592620710641989, 49.524539206022794], [-1.5006942960491927, 49.63852280214522], [-1.4829726867586148, 49.638291910233036], [-1.4298092472781398, 49.637582965050335], [-1.4120885725040202, 49.63734122712897], [-1.305769664236912, 49.63583386580941], [-1.2880507278925648, 49.63557315081551], [-1.2703320505955638, 49.635309725184904], [-1.2526136350202342, 49.63504358901392], [-1.234895483840659, 49.63477474239991], [-0.1394548464224059, 49.26740682214494], [-0.1318762095186939, 49.09447703855775], [-0.15027811376738953, 48.77247217623179], [-0.19149190727196747, 48.65831725489923], [-0.24482988225582472, 48.63657278525832]]]}}, {"type": "Feature", "properties": {"TILE": "t31tfj"}, "geometry": {"type": "Polygon", "coordinates": [[[5.556139764516064, 43.269209638429004], [4.677143976915893, 43.423788133980366], [4.39605085066055, 43.577395111057776], [4.364874359110223, 43.60082194037568], [4.335460752910613, 43.704894761765146], [4.277078972929685, 43.94758120819412], [4.277325771033751, 43.95910292683843], [4.295029339316531, 44.03957433004723], [4.329293473582614, 44.14289860672538], [4.3463407456927925, 44.18879518380752], [4.443533398912005, 44.23370402329282], [5.324503983929802, 44.21916945861813], [5.5801435876985, 44.20215462714576], [5.595135725369712, 44.17876729424222], [5.605053490501501, 44.04025478977386], [5.571896846352937, 43.268856217878096], [5.556139764516064, 43.269209638429004]]]}}, {"type": "Feature", "properties": {"TILE": "t31tfm"}, "geometry": {"type": "Polygon", "coordinates": [[[4.323706449572191, 45.9670645362372], [4.308003636964332, 46.00180708108243], [4.3082751747302925, 46.013324499540126], [4.309090781340491, 46.047876607554485], [4.309362981731208, 46.05939392777099], [4.312642367945012, 46.19759985437618], [4.312916735748192, 46.20911685524267], [4.323749083439017, 46.658260719479514], [4.324030256101472, 46.66977673715028], [4.3243116015646175, 46.68129273023093], [4.32459311996112, 46.69280869872102], [4.325438714079533, 46.72735645664305], [4.325720925538948, 46.73887232676622], [4.3268515087007104, 46.784935561325675], [4.3271345894908695, 46.79645130848007], [4.380978596440212, 46.93404104222984], [4.397789369667435, 46.933837002317404], [4.599503602493812, 46.93119607255236], [4.616311800806506, 46.93095995975576], [4.649927554445749, 46.930480334410795], [4.666735105340025, 46.93023682202416], [4.817992886831577, 46.927934234163885], [4.834798135661868, 46.92766606194099], [4.851603142105826, 46.92739542421805], [4.86840790394972, 46.927122321086344], [4.902016684983373, 46.92656871896579], [4.918820699746676, 46.92628822016352], [4.986034202144277, 46.925141575557554], [5.0028369275178735, 46.924848752539965], [5.019639388377149, 46.92455346497211], [5.036441582510484, 46.924255712953496], [5.070045161753984, 46.9236528159663], [5.086846542442033, 46.923347671200915], [5.10364764755992, 46.92304006239117], [5.120448474897159, 46.92272998964074], [5.137249022243491, 46.922417453054116], [5.1540492873889, 46.922102452736624], [5.170849268123596, 46.921784988794435], [5.187648962238032, 46.92146506133447], [5.238046302767879, 46.920490498930235], [5.254844828310587, 46.92016071848554], [5.271643056188911, 46.919828475070425], [5.288440984194761, 46.91949376879674], [5.305238610120298, 46.91915659977729], [5.322035931757938, 46.91881696812564], [5.422813347945215, 46.91672746940455], [5.4396084777766625, 46.9163706025773], [5.50678575565827, 46.9149185195448], [5.523579253743464, 46.91454934546701], [5.67470548877891, 46.91111604533544], [5.691495558095792, 46.91072226618301], [5.708285272423935, 46.91032602723855], [5.725074629562335, 46.90992732863539], [5.725563614449061, 46.58736381487992], [5.693790151995251, 45.94297154878784], [5.6772946502396575, 45.94335946882244], [5.660798811358981, 45.94374501031045], [5.644302637418251, 45.94412817312556], [5.248299318476337, 45.95261016392402], [5.231795439923176, 45.952933821122585], [5.215291280089743, 45.95325509663563], [5.198786841047689, 45.953573990357704], [4.885152206498306, 45.95918029633408], [4.868642618662228, 45.95945153330603], [4.852132795171146, 45.95972038645389], [4.8356227381012316, 45.95998685568944], [4.769580215563063, 45.96102889177086], [4.753069021747944, 45.96128344014849], [4.6539972880959635, 45.96276065461115], [4.637484590087176, 45.962998510300025], [4.620971685506063, 45.963233981000506], [4.604458576431249, 45.963467066635175], [4.571431753115812, 45.96392608240197], [4.554918043033247, 45.96415201238338], [4.340222716859164, 45.96687200779151], [4.323706449572191, 45.9670645362372]]]}}, {"type": "Feature", "properties": {"TILE": "t32ulu"}, "geometry": {"type": "Polygon", "coordinates": [[[6.373585839347354, 47.73915864478685], [6.333592346622665, 47.85341594519374], [6.28889006836229, 48.70464866764951], [6.3925699616314375, 48.71855984126756], [6.409954351073272, 48.718952189055344], [6.514268447343528, 48.72125123889614], [6.531655400040088, 48.7216252397852], [6.549042708934617, 48.72199661914999], [6.566430371530805, 48.72236537685857], [6.635984508994931, 48.72381418852522], [6.6533739026437155, 48.7241698360066], [6.688153703594281, 48.72487326355939], [6.705544105898743, 48.72522104338084], [6.792501035739145, 48.72692059802405], [6.8098933878707495, 48.7272526392144], [6.9316485668596055, 48.729503462394995], [6.9490433787004875, 48.729814512170556], [7.157803508420798, 48.73334237292092], [7.175201975553241, 48.733619296766555], [7.418807056527975, 48.73722047986799], [7.436209214921116, 48.73745800709156], [7.453611599327715, 48.737692907162916], [7.4710142072377455, 48.73792517999846], [7.488417036140956, 48.73815482551553], [7.5058200835269115, 48.73838184363244], [7.523223346884966, 48.73860623426844], [7.540626823704286, 48.738827997343705], [7.558030511473837, 48.73904713277928], [7.592838509818527, 48.73947752042058], [7.610242815370652, 48.73968877247315], [7.627647321826972, 48.739897396579806], [7.645052026675508, 48.7401033926663], [7.732078438869913, 48.741093950263455], [7.749484281310367, 48.74128417672233], [7.767453257315807, 48.71844724992339], [7.7677344666226755, 48.70693495105045], [7.768015498072698, 48.69542262784325], [7.768296351809983, 48.683910280301596], [7.755724596707393, 48.488010704218105], [7.725122177403572, 48.32645296093773], [7.61392250530424, 47.968155937813876], [7.548894094188675, 47.84066605878738], [7.532442496280921, 47.817422672255084], [7.396765504939055, 47.78105587713449], [7.243827088171374, 47.75578242018902], [6.373585839347354, 47.73915864478685]]]}}]}
